{
  "norad_id": 63006,
  "name": "STARLINK-11553 [DTC]",
  "history": [
    {
      "epoch": "2026-03-28T22:02:11.337792Z",
      "apogee_km": 357.42960684989157,
      "perigee_km": 354.81523265795477,
      "latitude_deg": 3.718816988128889e-05,
      "longitude_deg": -77.05534326502328,
      "height_km": 356.2015732834588,
      "semi_major_axis_km": 6734.259419753923,
      "eccentricity": 0.00019411,
      "inclination_deg": 42.9999,
      "raan_deg": 79.8236,
      "arg_perigee_deg": 256.4444,
      "mean_anomaly_deg": 103.6208,
      "mean_motion_rev_day": 15.70970386
    },
    {
      "epoch": "2026-03-29T02:36:51.907968Z",
      "apogee_km": 357.2933221779722,
      "perigee_km": 355.32821031978165,
      "latitude_deg": -7.467973947455658e-06,
      "longitude_deg": -147.0637424184382,
      "height_km": 356.65755036347724,
      "semi_major_axis_km": 6734.447766248877,
      "eccentricity": 0.0001459,
      "inclination_deg": 42.9987,
      "raan_deg": 78.6723,
      "arg_perigee_deg": 234.1997,
      "mean_anomaly_deg": 125.8735,
      "mean_motion_rev_day": 15.70904482
    },
    {
      "epoch": "2026-03-29T23:58:41.997216Z",
      "apogee_km": 356.9955469345623,
      "perigee_km": 355.24464009024996,
      "latitude_deg": -4.431040761906874e-05,
      "longitude_deg": -113.76457121183759,
      "height_km": 356.09249585835306,
      "semi_major_axis_km": 6734.257093512406,
      "eccentricity": 0.00013,
      "inclination_deg": 42.9994,
      "raan_deg": 73.3076,
      "arg_perigee_deg": 256.7823,
      "mean_anomaly_deg": 103.2899,
      "mean_motion_rev_day": 15.709712
    },
    {
      "epoch": "2026-03-30T06:04:57.057888Z",
      "apogee_km": 362.2891170451312,
      "perigee_km": 350.7255979903857,
      "latitude_deg": -6.575204423814698e-06,
      "longitude_deg": 152.88902661188973,
      "height_km": 355.00172805931,
      "semi_major_axis_km": 6734.644357517758,
      "eccentricity": 0.00085851,
      "inclination_deg": 42.9996,
      "raan_deg": 71.7746,
      "arg_perigee_deg": 282.798,
      "mean_anomaly_deg": 77.1928,
      "mean_motion_rev_day": 15.70835698
    }
  ]
}